SPACEBEE-114            
1 52010U 22026C   22230.78955351  .00011132  00000+0  56903-3 0  9995
2 52010  97.5063 229.9748 0027719  63.0265 297.3794 15.16495523 23646
SPACEBEE-126            
1 52011U 22026D   22230.79313590  .00012969  00000+0  66295-3 0  9994
2 52011  97.5048 229.9422 0028029  60.5721 299.8304 15.16447749 23633
SPACEBEE-118            
1 52012U 22026E   22230.76187129  .00011564  00000+0  58516-3 0  9996
2 52012  97.5053 230.0034 0026967  65.0180 295.3850 15.16858869 23647
SPACEBEE-120            
1 52013U 22026F   22230.44236665  .00011805  00000+0  59996-3 0  9993
2 52013  97.5044 229.6398 0028851  59.5391 300.8686 15.16652740 23583
SPACEBEE-122            
1 52014U 22026G   22230.77162140  .00011253  00000+0  57230-3 0  9992
2 52014  97.5045 229.9715 0027754  60.9765 299.4244 15.16668836 23635
SPACEBEE-119            
1 52015U 22026H   22230.79092052  .00011791  00000+0  60510-3 0  9991
2 52015  97.5057 229.9692 0028781  61.6103 298.8026 15.16314953 23637
SPACEBEE-115            
1 52016U 22026J   22230.77702541  .00010533  00000+0  53666-3 0  9998
2 52016  97.5060 229.9900 0028225  61.3695 299.0371 15.16610579 23639
SPACEBEENZ-14           
1 52018U 22026L   22230.93515331  .00016713  00000+0  83141-3 0  9994
2 52018  97.5052 230.2283 0027854  60.5854 299.8155 15.17345219 23664
SPACEBEENZ-11           
1 52019U 22026M   22230.79579203  .00017400  00000+0  86200-3 0  9990
2 52019  97.5053 230.1062 0027788  61.0574 299.3441 15.17483696 23600
SPACEBEE-127            
1 52020U 22026N   22230.78288543  .00010676  00000+0  54559-3 0  9995
2 52020  97.5048 229.9587 0028219  60.9877 299.4178 15.16503001 23585
SPACEBEE-125            
1 52021U 22026P   22230.82173597  .00014581  00000+0  73204-3 0  9990
2 52021  97.5038 230.0496 0029984  60.5507 299.8713 15.16999349 23519
SPACEBEE-117            
1 52022U 22026Q   22230.77996003  .00010575  00000+0  53969-3 0  9995
2 52022  97.5060 229.9867 0028275  61.0709 299.3354 15.16550495 23506
SPACEBEE-116            
1 52023U 22026R   22230.97174538  .00012163  00000+0  61794-3 0  9999
2 52023  97.5060 230.1920 0028051  60.8134 299.5900 15.16679114 23534
SPACEBEE-113            
1 52024U 22026S   22230.76850798  .00011198  00000+0  56821-3 0  9998
2 52024  97.5056 229.9961 0029823  58.0186 302.3940 15.16697918 23501
SPACEBEE-112            
1 52025U 22026T   22230.75775207  .00012760  00000+0  64294-3 0  9998
2 52025  97.5055 230.0103 0027995  61.0729 299.3307 15.16956140 23504
SPACEBEENZ-13           
1 52026U 22026U   22230.93323656  .00016859  00000+0  83759-3 0  9996
2 52026  97.5053 230.2300 0027861  60.6466 299.7544 15.17387983 23443
SPACEBEE-123            
1 52027U 22026V   22230.72163397  .00012501  00000+0  64059-3 0  9990
2 52027  97.5044 229.8808 0028337  61.6534 298.7551 15.16362457 23408
