[{"OBJECT_NAME":"SPACEBEE-114","OBJECT_ID":"2022-026C","EPOCH":"2022-08-18T18:56:57.423264","MEAN_MOTION":15.16495523,"ECCENTRICITY":0.0027719,"INCLINATION":97.5063,"RA_OF_ASC_NODE":229.9748,"ARG_OF_PERICENTER":63.0265,"MEAN_ANOMALY":297.3794,"EPHEMERIS_TYPE":0,"CLASSIFICATION_TYPE":"U","NORAD_CAT_ID":52010,"ELEMENT_SET_NO":999,"REV_AT_EPOCH":2364,"BSTAR":0.00056903,"MEAN_MOTION_DOT":0.00011132,"MEAN_MOTION_DDOT":0},{"OBJECT_NAME":"SPACEBEE-126","OBJECT_ID":"2022-026D","EPOCH":"2022-08-18T19:02:06.941760","MEAN_MOTION":15.16447749,"ECCENTRICITY":0.0028029,"INCLINATION":97.5048,"RA_OF_ASC_NODE":229.9422,"ARG_OF_PERICENTER":60.5721,"MEAN_ANOMALY":299.8304,"EPHEMERIS_TYPE":0,"CLASSIFICATION_TYPE":"U","NORAD_CAT_ID":52011,"ELEMENT_SET_NO":999,"REV_AT_EPOCH":2363,"BSTAR":0.00066295,"MEAN_MOTION_DOT":0.00012969,"MEAN_MOTION_DDOT":0},{"OBJECT_NAME":"SPACEBEE-118","OBJECT_ID":"2022-026E","EPOCH":"2022-08-18T18:17:05.679456","MEAN_MOTION":15.16858869,"ECCENTRICITY":0.0026967,"INCLINATION":97.5053,"RA_OF_ASC_NODE":230.0034,"ARG_OF_PERICENTER":65.018,"MEAN_ANOMALY":295.385,"EPHEMERIS_TYPE":0,"CLASSIFICATION_TYPE":"U","NORAD_CAT_ID":52012,"ELEMENT_SET_NO":999,"REV_AT_EPOCH":2364,"BSTAR":0.00058516,"MEAN_MOTION_DOT":0.00011564,"MEAN_MOTION_DDOT":0},{"OBJECT_NAME":"SPACEBEE-120","OBJECT_ID":"2022-026F","EPOCH":"2022-08-18T10:37:00.478560","MEAN_MOTION":15.1665274,"ECCENTRICITY":0.0028851,"INCLINATION":97.5044,"RA_OF_ASC_NODE":229.6398,"ARG_OF_PERICENTER":59.5391,"MEAN_ANOMALY":300.8686,"EPHEMERIS_TYPE":0,"CLASSIFICATION_TYPE":"U","NORAD_CAT_ID":52013,"ELEMENT_SET_NO":999,"REV_AT_EPOCH":2358,"BSTAR":0.00059996,"MEAN_MOTION_DOT":0.00011805,"MEAN_MOTION_DDOT":0},{"OBJECT_NAME":"SPACEBEE-122","OBJECT_ID":"2022-026G","EPOCH":"2022-08-18T18:31:08.088960","MEAN_MOTION":15.16668836,"ECCENTRICITY":0.0027754,"INCLINATION":97.5045,"RA_OF_ASC_NODE":229.9715,"ARG_OF_PERICENTER":60.9765,"MEAN_ANOMALY":299.4244,"EPHEMERIS_TYPE":0,"CLASSIFICATION_TYPE":"U","NORAD_CAT_ID":52014,"ELEMENT_SET_NO":999,"REV_AT_EPOCH":2363,"BSTAR":0.0005723,"MEAN_MOTION_DOT":0.00011253,"MEAN_MOTION_DDOT":0},{"OBJECT_NAME":"SPACEBEE-119","OBJECT_ID":"2022-026H","EPOCH":"2022-08-18T18:58:55.532928","MEAN_MOTION":15.16314953,"ECCENTRICITY":0.0028781,"INCLINATION":97.5057,"RA_OF_ASC_NODE":229.9692,"ARG_OF_PERICENTER":61.6103,"MEAN_ANOMALY":298.8026,"EPHEMERIS_TYPE":0,"CLASSIFICATION_TYPE":"U","NORAD_CAT_ID":52015,"ELEMENT_SET_NO":999,"REV_AT_EPOCH":2363,"BSTAR":0.0006051,"MEAN_MOTION_DOT":0.00011791,"MEAN_MOTION_DDOT":0},{"OBJECT_NAME":"SPACEBEE-115","OBJECT_ID":"2022-026J","EPOCH":"2022-08-18T18:38:54.995424","MEAN_MOTION":15.16610579,"ECCENTRICITY":0.0028225,"INCLINATION":97.506,"RA_OF_ASC_NODE":229.99,"ARG_OF_PERICENTER":61.3695,"MEAN_ANOMALY":299.0371,"EPHEMERIS_TYPE":0,"CLASSIFICATION_TYPE":"U","NORAD_CAT_ID":52016,"ELEMENT_SET_NO":999,"REV_AT_EPOCH":2363,"BSTAR":0.00053666,"MEAN_MOTION_DOT":0.00010533,"MEAN_MOTION_DDOT":0},{"OBJECT_NAME":"SPACEBEENZ-14","OBJECT_ID":"2022-026L","EPOCH":"2022-08-18T22:26:37.245984","MEAN_MOTION":15.17345219,"ECCENTRICITY":0.0027854,"INCLINATION":97.5052,"RA_OF_ASC_NODE":230.2283,"ARG_OF_PERICENTER":60.5854,"MEAN_ANOMALY":299.8155,"EPHEMERIS_TYPE":0,"CLASSIFICATION_TYPE":"U","NORAD_CAT_ID":52018,"ELEMENT_SET_NO":999,"REV_AT_EPOCH":2366,"BSTAR":0.00083141,"MEAN_MOTION_DOT":0.00016713,"MEAN_MOTION_DDOT":0},{"OBJECT_NAME":"SPACEBEENZ-11","OBJECT_ID":"2022-026M","EPOCH":"2022-08-18T19:05:56.431392","MEAN_MOTION":15.17483696,"ECCENTRICITY":0.0027788,"INCLINATION":97.5053,"RA_OF_ASC_NODE":230.1062,"ARG_OF_PERICENTER":61.0574,"MEAN_ANOMALY":299.3441,"EPHEMERIS_TYPE":0,"CLASSIFICATION_TYPE":"U","NORAD_CAT_ID":52019,"ELEMENT_SET_NO":999,"REV_AT_EPOCH":2360,"BSTAR":0.000862,"MEAN_MOTION_DOT":0.000174,"MEAN_MOTION_DDOT":0},{"OBJECT_NAME":"SPACEBEE-127","OBJECT_ID":"2022-026N","EPOCH":"2022-08-18T18:47:21.301152","MEAN_MOTION":15.16503001,"ECCENTRICITY":0.0028219,"INCLINATION":97.5048,"RA_OF_ASC_NODE":229.9587,"ARG_OF_PERICENTER":60.9877,"MEAN_ANOMALY":299.4178,"EPHEMERIS_TYPE":0,"CLASSIFICATION_TYPE":"U","NORAD_CAT_ID":52020,"ELEMENT_SET_NO":999,"REV_AT_EPOCH":2358,"BSTAR":0.00054559,"MEAN_MOTION_DOT":0.00010676,"MEAN_MOTION_DDOT":0},{"OBJECT_NAME":"SPACEBEE-125","OBJECT_ID":"2022-026P","EPOCH":"2022-08-18T19:43:17.987808","MEAN_MOTION":15.16999349,"ECCENTRICITY":0.0029984,"INCLINATION":97.5038,"RA_OF_ASC_NODE":230.0496,"ARG_OF_PERICENTER":60.5507,"MEAN_ANOMALY":299.8713,"EPHEMERIS_TYPE":0,"CLASSIFICATION_TYPE":"U","NORAD_CAT_ID":52021,"ELEMENT_SET_NO":999,"REV_AT_EPOCH":2351,"BSTAR":0.00073204,"MEAN_MOTION_DOT":0.00014581,"MEAN_MOTION_DDOT":0},{"OBJECT_NAME":"SPACEBEE-117","OBJECT_ID":"2022-026Q","EPOCH":"2022-08-18T18:43:08.546592","MEAN_MOTION":15.16550495,"ECCENTRICITY":0.0028275,"INCLINATION":97.506,"RA_OF_ASC_NODE":229.9867,"ARG_OF_PERICENTER":61.0709,"MEAN_ANOMALY":299.3354,"EPHEMERIS_TYPE":0,"CLASSIFICATION_TYPE":"U","NORAD_CAT_ID":52022,"ELEMENT_SET_NO":999,"REV_AT_EPOCH":2350,"BSTAR":0.00053969,"MEAN_MOTION_DOT":0.00010575,"MEAN_MOTION_DDOT":0},{"OBJECT_NAME":"SPACEBEE-116","OBJECT_ID":"2022-026R","EPOCH":"2022-08-18T23:19:18.800832","MEAN_MOTION":15.16679114,"ECCENTRICITY":0.0028051,"INCLINATION":97.506,"RA_OF_ASC_NODE":230.192,"ARG_OF_PERICENTER":60.8134,"MEAN_ANOMALY":299.59,"EPHEMERIS_TYPE":0,"CLASSIFICATION_TYPE":"U","NORAD_CAT_ID":52023,"ELEMENT_SET_NO":999,"REV_AT_EPOCH":2353,"BSTAR":0.00061794,"MEAN_MOTION_DOT":0.00012163,"MEAN_MOTION_DDOT":0},{"OBJECT_NAME":"SPACEBEE-113","OBJECT_ID":"2022-026S","EPOCH":"2022-08-18T18:26:39.089472","MEAN_MOTION":15.16697918,"ECCENTRICITY":0.0029823,"INCLINATION":97.5056,"RA_OF_ASC_NODE":229.9961,"ARG_OF_PERICENTER":58.0186,"MEAN_ANOMALY":302.394,"EPHEMERIS_TYPE":0,"CLASSIFICATION_TYPE":"U","NORAD_CAT_ID":52024,"ELEMENT_SET_NO":999,"REV_AT_EPOCH":2350,"BSTAR":0.00056821,"MEAN_MOTION_DOT":0.00011198,"MEAN_MOTION_DDOT":0},{"OBJECT_NAME":"SPACEBEE-112","OBJECT_ID":"2022-026T","EPOCH":"2022-08-18T18:11:09.778848","MEAN_MOTION":15.1695614,"ECCENTRICITY":0.0027995,"INCLINATION":97.5055,"RA_OF_ASC_NODE":230.0103,"ARG_OF_PERICENTER":61.0729,"MEAN_ANOMALY":299.3307,"EPHEMERIS_TYPE":0,"CLASSIFICATION_TYPE":"U","NORAD_CAT_ID":52025,"ELEMENT_SET_NO":999,"REV_AT_EPOCH":2350,"BSTAR":0.00064294,"MEAN_MOTION_DOT":0.0001276,"MEAN_MOTION_DDOT":0},{"OBJECT_NAME":"SPACEBEENZ-13","OBJECT_ID":"2022-026U","EPOCH":"2022-08-18T22:23:51.638784","MEAN_MOTION":15.17387983,"ECCENTRICITY":0.0027861,"INCLINATION":97.5053,"RA_OF_ASC_NODE":230.23,"ARG_OF_PERICENTER":60.6466,"MEAN_ANOMALY":299.7544,"EPHEMERIS_TYPE":0,"CLASSIFICATION_TYPE":"U","NORAD_CAT_ID":52026,"ELEMENT_SET_NO":999,"REV_AT_EPOCH":2344,"BSTAR":0.00083759,"MEAN_MOTION_DOT":0.00016859,"MEAN_MOTION_DDOT":0},{"OBJECT_NAME":"SPACEBEE-123","OBJECT_ID":"2022-026V","EPOCH":"2022-08-18T17:19:09.175008","MEAN_MOTION":15.16362457,"ECCENTRICITY":0.0028337,"INCLINATION":97.5044,"RA_OF_ASC_NODE":229.8808,"ARG_OF_PERICENTER":61.6534,"MEAN_ANOMALY":298.7551,"EPHEMERIS_TYPE":0,"CLASSIFICATION_TYPE":"U","NORAD_CAT_ID":52027,"ELEMENT_SET_NO":999,"REV_AT_EPOCH":2340,"BSTAR":0.00064059,"MEAN_MOTION_DOT":0.00012501,"MEAN_MOTION_DDOT":0}]